[{"OBJECT_NAME":"SKYSAT-C6","OBJECT_ID":"2017-068F","EPOCH":"2026-03-09T21:33:49.392576","MEAN_MOTION":15.32504544,"ECCENTRICITY":0.00036369,"INCLINATION":97.44,"RA_OF_ASC_NODE":205.7173,"ARG_OF_PERICENTER":127.5085,"MEAN_ANOMALY":232.6488,"EPHEMERIS_TYPE":0,"CLASSIFICATION_TYPE":"U","NORAD_CAT_ID":42992,"ELEMENT_SET_NO":999,"REV_AT_EPOCH":46710,"BSTAR":0.00039699196,"MEAN_MOTION_DOT":0.0001239,"MEAN_MOTION_DDOT":0},{"OBJECT_NAME":"STARLINK-33948","OBJECT_ID":"2025-240B","EPOCH":"2026-03-09T05:11:13.239744","MEAN_MOTION":15.30196599,"ECCENTRICITY":0.00011494,"INCLINATION":53.1588,"RA_OF_ASC_NODE":65.1773,"ARG_OF_PERICENTER":83.7551,"MEAN_ANOMALY":276.3581,"EPHEMERIS_TYPE":0,"CLASSIFICATION_TYPE":"U","NORAD_CAT_ID":66147,"ELEMENT_SET_NO":999,"REV_AT_EPOCH":2196,"BSTAR":0.00042273696,"MEAN_MOTION_DOT":0.0001218,"MEAN_MOTION_DDOT":0}]
